NORAD_CAT_ID,OBJECT_NAME,OBJECT_TYPE,EPOCH,MEAN_MOTION,ECCENTRICITY,INCLINATION,RA_OF_ASC_NODE,ARG_OF_PERICENTER,MEAN_ANOMALY,BSTAR,MEAN_MOTION_DOT,MEAN_MOTION_DDOT,TLE_LINE0,TLE_LINE1,TLE_LINE2,SEMIMAJOR_AXIS,PERIOD,APOGEE,PERIGEE,DECAYED
53992.0,STARLINK-5108,PAYLOAD,2023-09-11 10:12:59,15.08833222,0.0001435,53.2198,340.4559,93.2123,266.9033,7.6275e-05,9.26e-06,0.0,0 STARLINK-5108,1 53992U 22125AE  23254.42568690  .00000926  00000-0  76275-4 0  9994,2 53992  53.2198 340.4559 0001435  93.2123 266.9033 15.08833222 52113,6917.901,95.438,540.759,538.773,0.0
53992.0,STARLINK-5108,PAYLOAD,2023-09-11 13:23:45,15.08840514,0.0001335,53.2185,339.8616,86.665,273.4495,7.0958e-05,8.42e-06,0.0,0 STARLINK-5108,1 53992U 22125AE  23254.55816271  .00000842  00000-0  70958-4 0  9998,2 53992  53.2185 339.8616 0001335  86.6650 273.4495 15.08840514 52055,6917.879,95.438,540.667,538.82,0.0
53992.0,STARLINK-5108,PAYLOAD,2023-09-11 22:56:04,15.08840908,0.0001317,53.2186,338.0773,87.0247,273.0896,7.737e-05,9.44e-06,0.0,0 STARLINK-5108,1 53992U 22125AE  23254.95560256  .00000944  00000-0  77370-4 0  9999,2 53992  53.2186 338.0773 0001317  87.0247 273.0896 15.08840908 52191,6917.878,95.437,540.654,538.832,0.0
53992.0,STARLINK-5108,PAYLOAD,2023-09-12 13:14:31,15.08849906,0.0001355,53.2184,335.4006,85.7354,274.3793,0.00014043,1.948e-05,0.0,0 STARLINK-5108,1 53992U 22125AE  23255.55175660  .00001948  00000-0  14043-3 0  9999,2 53992  53.2184 335.4006 0001355  85.7354 274.3793 15.08849906 52204,6917.85,95.437,540.652,538.778,0.0
53992.0,STARLINK-5108,PAYLOAD,2023-09-12 14:49:54,15.0885138,0.0001328,53.2177,335.1021,87.5833,272.5311,0.00019307,2.787e-05,0.0,0 STARLINK-5108,1 53992U 22125AE  23255.61799577  .00002787  00000-0  19307-3 0  9995,2 53992  53.2177 335.1021 0001328  87.5833 272.5311 15.08851380 52296,6917.846,95.437,540.629,538.792,0.0
53992.0,STARLINK-5108,PAYLOAD,2023-09-13 09:54:32,15.08851577,0.0001447,53.2175,331.535,87.4834,272.6323,0.0002912,4.351e-05,0.0,0 STARLINK-5108,1 53992U 22125AE  23256.41287582  .00004351  00000-0  29120-3 0  9995,2 53992  53.2175 331.5350 0001447  87.4834 272.6323 15.08851577 52417,6917.845,95.437,540.711,538.709,0.0
53992.0,STARLINK-5108,PAYLOAD,2023-09-13 11:29:55,15.08853667,0.0001481,53.2173,331.2376,81.7836,278.3324,0.00027739,4.131e-05,0.0,0 STARLINK-5108,1 53992U 22125AE  23256.47911460  .00004131  00000-0  27739-3 0  9990,2 53992  53.2173 331.2376 0001481  81.7836 278.3324 15.08853667 52345,6917.839,95.437,540.728,538.679,0.0
53992.0,STARLINK-5108,PAYLOAD,2023-09-13 16:16:04,15.08865212,0.0001418,53.2171,330.3449,88.9832,271.1323,0.0004981,7.654e-05,0.0,0 STARLINK-5108,1 53992U 22125AE  23256.67782885  .00007654  00000-0  49810-3 0  9996,2 53992  53.2171 330.3449 0001418  88.9832 271.1323 15.08865212 52450,6917.803,95.436,540.649,538.687,0.0
53992.0,STARLINK-5108,PAYLOAD,2023-09-13 22:37:38,15.08827642,0.0001302,53.2174,329.1556,98.8642,261.2497,-0.0002447,-4.179e-05,0.0,0 STARLINK-5108,1 53992U 22125AE  23256.94280247 -.00004179  00000-0 -24470-3 0  9997,2 53992  53.2174 329.1556 0001302  98.8642 261.2497 15.08827642 52490,6917.918,95.438,540.684,538.882,0.0
53992.0,STARLINK-5108,PAYLOAD,2023-09-14 11:20:43,15.08818425,0.0001513,53.2168,326.775,117.5775,242.5371,-0.00033653,-5.637e-05,0.0,0 STARLINK-5108,1 53992U 22125AE  23257.47272999 -.00005637  00000-0 -33653-3 0  9994,2 53992  53.2168 326.7750 0001513 117.5775 242.5371 15.08818425 52494,6917.946,95.439,540.858,538.765,0.0
53992.0,STARLINK-5108,PAYLOAD,2023-09-15 09:36:08,15.0883809,0.0001614,53.2171,322.6128,119.8414,240.2738,0.00088536,0.0001383,0.0,0 STARLINK-5108,1 53992U 22125AE  23258.40009945  .00013830  00000-0  88536-3 0  9999,2 53992  53.2171 322.6128 0001614 119.8414 240.2738 15.08838090 52716,6917.886,95.438,540.868,538.635,0.0
53992.0,STARLINK-5108,PAYLOAD,2023-09-15 11:11:31,15.08839194,0.0001633,53.2173,322.3153,121.0725,239.0427,0.00095082,0.00014876,0.0,0 STARLINK-5108,1 53992U 22125AE  23258.46634018  .00014876  00000-0  95082-3 0  9995,2 53992  53.2173 322.3153 0001633 121.0725 239.0427 15.08839194 52643,6917.883,95.438,540.878,538.618,0.0
53992.0,STARLINK-5108,PAYLOAD,2023-09-16 09:26:55,15.08841366,0.0001546,53.2182,318.1563,105.5828,254.5335,0.00028156,4.196e-05,0.0,0 STARLINK-5108,1 53992U 22125AE  23259.39370194  .00004196  00000-0  28156-3 0  9992,2 53992  53.2182 318.1563 0001546 105.5828 254.5335 15.08841366 52863,6917.876,95.437,540.811,538.672,0.0
53992.0,STARLINK-5108,PAYLOAD,2023-09-16 11:02:18,15.08840368,0.0001563,53.2184,317.8598,106.7844,253.332,0.00021983,3.212e-05,0.0,0 STARLINK-5108,1 53992U 22125AE  23259.45994211  .00003212  00000-0  21983-3 0  9990,2 53992  53.2184 317.8598 0001563 106.7844 253.3320 15.08840368 52793,6917.879,95.438,540.826,538.663,0.0
53992.0,STARLINK-5108,PAYLOAD,2023-09-17 09:17:42,15.08858465,0.0001496,53.2176,313.6949,105.7597,254.356,0.00046848,7.179e-05,0.0,0 STARLINK-5108,1 53992U 22125AE  23260.38729443  .00007179  00000-0  46848-3 0  9990,2 53992  53.2176 313.6949 0001496 105.7597 254.3560 15.08858465 52937,6917.824,95.436,540.724,538.654,0.0
53992.0,STARLINK-5108,PAYLOAD,2023-09-18 10:43:51,15.08853111,0.0001427,53.2163,308.9353,90.5361,269.5795,0.00018496,2.658e-05,0.0,0 STARLINK-5108,1 53992U 22125AE  23261.44712799  .00002658  00000-0  18496-3 0  9999,2 53992  53.2163 308.9353 0001427  90.5361 269.5795 15.08853111 53171,6917.84,95.437,540.692,538.718,0.0
53992.0,STARLINK-5108,PAYLOAD,2023-09-18 20:16:10,15.08853334,0.0001414,53.2161,307.1511,91.8035,268.312,0.00015475,2.177e-05,0.0,0 STARLINK-5108,1 53992U 22125AE  23261.84456559  .00002177  00000-0  15475-3 0  9992,2 53992  53.2161 307.1511 0001414  91.8035 268.3120 15.08853334 53158,6917.84,95.437,540.683,538.726,0.0
53992.0,STARLINK-5108,PAYLOAD,2023-09-20 02:28:30,15.0883727,0.0001711,53.2163,301.5013,85.8768,274.2419,-4.2547e-05,-9.65e-06,0.0,0 STARLINK-5108,1 53992U 22125AE  23263.10312821 -.00000965  00000-0 -42547-4 0  9992,2 53992  53.2163 301.5013 0001711  85.8768 274.2419 15.08837270 53429,6917.889,95.438,540.937,538.57,0.0
53992.0,STARLINK-5108,PAYLOAD,2023-09-20 08:50:03,15.088335,0.0001575,53.2163,300.311,81.7083,278.4087,-6.6999e-05,-1.354e-05,0.0,0 STARLINK-5108,1 53992U 22125AE  23263.36809205 -.00001354  00000-0 -66999-4 0  9997,2 53992  53.2163 300.3110 0001575  81.7083 278.4087 15.08833500 53381,6917.9,95.438,540.855,538.676,0.0
53992.0,STARLINK-5108,PAYLOAD,2023-09-21 08:40:50,15.08841405,0.0001643,53.2169,295.8494,92.2546,267.8634,0.00018213,2.612e-05,0.0,0 STARLINK-5108,1 53992U 22125AE  23264.36169422  .00002612  00000-0  18213-3 0  9999,2 53992  53.2169 295.8494 0001643  92.2546 267.8634 15.08841405 53616,6917.876,95.437,540.878,538.604,0.0
53992.0,STARLINK-5108,PAYLOAD,2023-09-22 08:31:37,15.08847879,0.0001668,53.2167,291.3903,83.0331,277.085,0.00038905,5.91e-05,0.0,0 STARLINK-5108,1 53992U 22125AE  23265.35529567  .00005910  00000-0  38905-3 0  9993,2 53992  53.2167 291.3903 0001668  83.0331 277.0850 15.08847879 53688,6917.856,95.437,540.875,538.567,0.0
53992.0,STARLINK-5108,PAYLOAD,2023-09-23 02:00:52,15.08844128,0.0001674,53.2159,288.121,67.5656,292.5514,0.0001305,1.79e-05,0.0,0 STARLINK-5108,1 53992U 22125AE  23266.08393601  .00001790  00000-0  13050-3 0  9998,2 53992  53.2159 288.1210 0001674  67.5656 292.5514 15.08844128 53872,6917.868,95.437,540.891,538.575,0.0
53992.0,STARLINK-5108,PAYLOAD,2023-09-23 06:47:01,15.08841994,0.0001644,53.2159,287.2287,73.4714,286.6459,9.097e-05,1.16e-05,0.0,0 STARLINK-5108,1 53992U 22125AE  23266.28265636  .00001160  00000-0  90970-4 0  9994,2 53992  53.2159 287.2287 0001644  73.4714 286.6459 15.08841994 53829,6917.874,95.437,540.877,538.602,0.0
53992.0,STARLINK-5108,PAYLOAD,2023-09-24 01:51:39,15.08837501,0.0001635,53.2155,283.659,88.8316,271.2863,-1.7422e-05,-5.65e-06,0.0,0 STARLINK-5108,1 53992U 22125AE  23267.07753700 -.00000565  00000-0 -17422-4 0  9997,2 53992  53.2155 283.6590 0001635  88.8316 271.2863 15.08837501 54021,6917.888,95.438,540.884,538.622,0.0
53992.0,STARLINK-5108,PAYLOAD,2023-09-24 06:37:48,15.08838836,0.0001573,53.2168,282.7667,90.0572,270.0601,1.6992e-05,-1.8e-07,0.0,0 STARLINK-5108,1 53992U 22125AE  23267.27625915 -.00000018  00000-0  16992-4 0  9998,2 53992  53.2168 282.7667 0001573  90.0572 270.0601 15.08838836 53972,6917.884,95.438,540.837,538.661,0.0
53992.0,STARLINK-5108,PAYLOAD,2023-09-25 08:03:58,15.08841315,0.000151,53.2173,278.0091,95.6687,264.4477,0.00013414,1.848e-05,0.0,0 STARLINK-5108,1 53992U 22125AE  23268.33609684  .00001848  00000-0  13414-3 0  9997,2 53992  53.2173 278.0091 0001510  95.6687 264.4477 15.08841315 54218,6917.876,95.437,540.786,538.697,0.0
53992.0,STARLINK-5108,PAYLOAD,2023-09-25 17:36:17,15.08844355,0.0001614,53.2173,276.2246,96.6982,263.4194,0.00014936,2.09e-05,0.0,0 STARLINK-5108,1 53992U 22125AE  23268.73353460  .00002090  00000-0  14936-3 0  9999,2 53992  53.2173 276.2246 0001614  96.6982 263.4194 15.08844355 54193,6917.867,95.437,540.849,538.616,0.0
53992.0,STARLINK-5108,PAYLOAD,2023-09-26 09:30:08,15.08856195,0.0001563,53.2158,273.2504,93.4527,266.6644,0.00030292,4.538e-05,0.0,0 STARLINK-5108,1 53992U 22125AE  23269.39592735  .00004538  00000-0  30292-3 0  9994,2 53992  53.2158 273.2504 0001563  93.4527 266.6644 15.08856195 54373,6917.831,95.437,540.777,538.615,0.0
53992.0,STARLINK-5108,PAYLOAD,2023-09-26 23:48:36,15.08844603,0.0001813,53.2148,270.5757,84.1935,275.9264,7.3391e-05,8.8e-06,0.0,0 STARLINK-5108,1 53992U 22125AE  23269.99209272  .00000880  00000-0  73391-4 0  9995,2 53992  53.2148 270.5757 0001813  84.1935 275.9264 15.08844603 54462,6917.866,95.437,540.986,538.477,0.0
53992.0,STARLINK-5108,PAYLOAD,2023-09-27 09:20:55,15.08837207,0.0001501,53.2155,268.7876,93.4551,266.6613,-3.3664e-05,-8.24e-06,0.0,0 STARLINK-5108,1 53992U 22125AE  23270.38953675 -.00000824  00000-0 -33664-4 0  9992,2 53992  53.2155 268.7876 0001501  93.4551 266.6613 15.08837207 54526,6917.889,95.438,540.792,538.716,0.0
